{"type": "FeatureCollection", "features": [ {"type": "Feature", "properties": {"norad_id": 34529, "name": "IRIDIUM 33 DEB", "group": "iridium-33-debris", "lat": 65.10901681475333, "lon": -150.11677378713972, "alt_km": 749.7944155438181, "timestamp": "2025-12-07T05:38:10.288883+00:00", "meta": {"OBJECT_NAME": "IRIDIUM 33 DEB", "OBJECT_ID": "1997-051HW", "EPOCH": "2025-12-06T14:06:09.457344", "MEAN_MOTION": 14.40608516, "ECCENTRICITY": 0.00040459, "INCLINATION": 86.3647, "RA_OF_ASC_NODE": 38.0342, "ARG_OF_PERICENTER": 198.2113, "MEAN_ANOMALY": 161.8942, "EPHEMERIS_TYPE": 0, "CLASSIFICATION_TYPE": "U", "NORAD_CAT_ID": 34529, "ELEMENT_SET_NO": 999, "REV_AT_EPOCH": 88053, "BSTAR": 0.00022828173, "MEAN_MOTION_DOT": 7.47e-06, "MEAN_MOTION_DDOT": 0}, "tle": {"line1": "1 34529U 97051HW  25340.58760946  .00000747  00000+0  22828-3 0  9996", "line2": "2 34529  86.3647  38.0342 0004045 198.2113 161.8942 14.40608516880537"}}, "geometry": {"type": "Point", "coordinates": [-150.11677378713972, 65.10901681475333]}}, {"type": "Feature", "properties": {"norad_id": 34538, "name": "IRIDIUM 33 DEB", "group": "iridium-33-debris", "lat": -85.96134074658221, "lon": -59.269142288772926, "alt_km": 751.1304800429652, "timestamp": "2025-12-07T05:38:10.288892+00:00", "meta": {"OBJECT_NAME": "IRIDIUM 33 DEB", "OBJECT_ID": "1997-051JF", "EPOCH": "2025-12-06T08:27:05.441184", "MEAN_MOTION": 14.42592523, "ECCENTRICITY": 0.00336215, "INCLINATION": 86.2774, "RA_OF_ASC_NODE": 8.3539, "ARG_OF_PERICENTER": 349.5776, "MEAN_ANOMALY": 21.1302, "EPHEMERIS_TYPE": 0, "CLASSIFICATION_TYPE": "U", "NORAD_CAT_ID": 34538, "ELEMENT_SET_NO": 999, "REV_AT_EPOCH": 87664, "BSTAR": 0.0017279991, "MEAN_MOTION_DOT": 5.794e-05, "MEAN_MOTION_DDOT": 0}, "tle": {"line1": "1 34538U 97051JF  25340.35214631  .00005794  00000+0  17280-2 0  9998", "line2": "2 34538  86.2774   8.3539 0033621 349.5776  21.1302 14.42592523876640"}}, "geometry": {"type": "Point", "coordinates": [-59.269142288772926, -85.96134074658221]}}, {"type": "Feature", "properties": {"norad_id": 34540, "name": "IRIDIUM 33 DEB", "group": "iridium-33-debris", "lat": 44.55692389115752, "lon": -46.234048351919135, "alt_km": 648.5463973648484, "timestamp": "2025-12-07T05:38:10.288903+00:00", "meta": {"OBJECT_NAME": "IRIDIUM 33 DEB", "OBJECT_ID": "1997-051JH", "EPOCH": "2025-12-06T08:57:30.781152", "MEAN_MOTION": 14.75115049, "ECCENTRICITY": 0.00153471, "INCLINATION": 86.3101, "RA_OF_ASC_NODE": 310.5165, "ARG_OF_PERICENTER": 182.2807, "MEAN_ANOMALY": 330.2602, "EPHEMERIS_TYPE": 0, "CLASSIFICATION_TYPE": "U", "NORAD_CAT_ID": 34540, "ELEMENT_SET_NO": 999, "REV_AT_EPOCH": 88927, "BSTAR": 0.0029561782, "MEAN_MOTION_DOT": 0.00020031, "MEAN_MOTION_DDOT": 0}, "tle": {"line1": "1 34540U 97051JH  25340.37327293  .00020031  00000+0  29562-2 0  9999", "line2": "2 34540  86.3101 310.5165 0015347 182.2807 330.2602 14.75115049889273"}}, "geometry": {"type": "Point", "coordinates": [-46.234048351919135, 44.55692389115752]}}, {"type": "Feature", "properties": {"norad_id": 34648, "name": "IRIDIUM 33 DEB", "group": "iridium-33-debris", "lat": 17.245225525789337, "lon": -74.70954789560075, "alt_km": 789.9521851007721, "timestamp": "2025-12-07T05:38:10.288913+00:00", "meta": {"OBJECT_NAME": "IRIDIUM 33 DEB", "OBJECT_ID": "1997-051JZ", "EPOCH": "2025-12-05T14:25:00.080832", "MEAN_MOTION": 14.11133288, "ECCENTRICITY": 0.01851844, "INCLINATION": 86.391, "RA_OF_ASC_NODE": 284.8271, "ARG_OF_PERICENTER": 321.0123, "MEAN_ANOMALY": 37.7826, "EPHEMERIS_TYPE": 0, "CLASSIFICATION_TYPE": "U", "NORAD_CAT_ID": 34648, "ELEMENT_SET_NO": 999, "REV_AT_EPOCH": 84860, "BSTAR": 0.014281449, "MEAN_MOTION_DOT": 0.00030319, "MEAN_MOTION_DDOT": 0}, "tle": {"line1": "1 34648U 97051JZ  25339.60069538  .00030319  00000+0  14281-1 0  9998", "line2": "2 34648  86.3910 284.8271 0185184 321.0123  37.7826 14.11133288848606"}}, "geometry": {"type": "Point", "coordinates": [-74.70954789560075, 17.245225525789337]}}, {"type": "Feature", "properties": {"norad_id": 34651, "name": "IRIDIUM 33 DEB", "group": "iridium-33-debris", "lat": 32.8213056300516, "lon": -39.48475113062564, "alt_km": 775.4991584589452, "timestamp": "2025-12-07T05:38:10.288923+00:00", "meta": {"OBJECT_NAME": "IRIDIUM 33 DEB", "OBJECT_ID": "1997-051KC", "EPOCH": "2025-12-06T10:24:25.220736", "MEAN_MOTION": 14.25653939, "ECCENTRICITY": 0.01419204, "INCLINATION": 86.2832, "RA_OF_ASC_NODE": 143.2589, "ARG_OF_PERICENTER": 223.9554, "MEAN_ANOMALY": 135.0281, "EPHEMERIS_TYPE": 0, "CLASSIFICATION_TYPE": "U", "NORAD_CAT_ID": 34651, "ELEMENT_SET_NO": 999, "REV_AT_EPOCH": 85806, "BSTAR": 0.0058023544, "MEAN_MOTION_DOT": 0.00015319, "MEAN_MOTION_DDOT": 0}, "tle": {"line1": "1 34651U 97051KC  25340.43362524  .00015319  00000+0  58024-2 0  9993", "line2": "2 34651  86.2832 143.2589 0141920 223.9554 135.0281 14.25653939858063"}}, "geometry": {"type": "Point", "coordinates": [-39.48475113062564, 32.8213056300516]}}, {"type": "Feature", "properties": {"norad_id": 34652, "name": "IRIDIUM 33 DEB", "group": "iridium-33-debris", "lat": -21.681549515253476, "lon": 163.91461619507487, "alt_km": 700.5854616391116, "timestamp": "2025-12-07T05:38:10.288948+00:00", "meta": {"OBJECT_NAME": "IRIDIUM 33 DEB", "OBJECT_ID": "1997-051KD", "EPOCH": "2025-12-06T11:20:22.742016", "MEAN_MOTION": 14.61968403, "ECCENTRICITY": 0.00265973, "INCLINATION": 86.3308, "RA_OF_ASC_NODE": 342.792, "ARG_OF_PERICENTER": 320.8113, "MEAN_ANOMALY": 191.3091, "EPHEMERIS_TYPE": 0, "CLASSIFICATION_TYPE": "U", "NORAD_CAT_ID": 34652, "ELEMENT_SET_NO": 999, "REV_AT_EPOCH": 88392, "BSTAR": 0.0017876249, "MEAN_MOTION_DOT": 9.024e-05, "MEAN_MOTION_DDOT": 0}, "tle": {"line1": "1 34652U 97051KD  25340.47248544  .00009024  00000+0  17876-2 0  9999", "line2": "2 34652  86.3308 342.7920 0026597 320.8113 191.3091 14.61968403883920"}}, "geometry": {"type": "Point", "coordinates": [163.91461619507487, -21.681549515253476]}}, {"type": "Feature", "properties": {"norad_id": 34690, "name": "IRIDIUM 33 DEB", "group": "iridium-33-debris", "lat": -22.141879693699174, "lon": -139.1393836040521, "alt_km": 722.0975764400073, "timestamp": "2025-12-07T05:38:10.288960+00:00", "meta": {"OBJECT_NAME": "IRIDIUM 33 DEB", "OBJECT_ID": "1997-051KM", "EPOCH": "2025-12-06T10:38:22.523136", "MEAN_MOTION": 14.55060659, "ECCENTRICITY": 0.00115312, "INCLINATION": 86.3786, "RA_OF_ASC_NODE": 39.7278, "ARG_OF_PERICENTER": 48.3247, "MEAN_ANOMALY": 330.1756, "EPHEMERIS_TYPE": 0, "CLASSIFICATION_TYPE": "U", "NORAD_CAT_ID": 34690, "ELEMENT_SET_NO": 999, "REV_AT_EPOCH": 88003, "BSTAR": 0.00091242052, "MEAN_MOTION_DOT": 3.956e-05, "MEAN_MOTION_DDOT": 0}, "tle": {"line1": "1 34690U 97051KM  25340.44331624  .00003956  00000+0  91242-3 0  9998", "line2": "2 34690  86.3786  39.7278 0011531  48.3247 330.1756 14.55060659880032"}}, "geometry": {"type": "Point", "coordinates": [-139.1393836040521, -22.141879693699174]}}, {"type": "Feature", "properties": {"norad_id": 34693, "name": "IRIDIUM 33 DEB", "group": "iridium-33-debris", "lat": -85.99212379500145, "lon": -166.2093050293767, "alt_km": 504.25174677348696, "timestamp": "2025-12-07T05:38:10.288970+00:00", "meta": {"OBJECT_NAME": "IRIDIUM 33 DEB", "OBJECT_ID": "1997-051KQ", "EPOCH": "2025-12-06T08:40:01.085952", "MEAN_MOTION": 15.25753758, "ECCENTRICITY": 0.00155045, "INCLINATION": 86.306, "RA_OF_ASC_NODE": 306.9875, "ARG_OF_PERICENTER": 62.5599, "MEAN_ANOMALY": 89.6488, "EPHEMERIS_TYPE": 0, "CLASSIFICATION_TYPE": "U", "NORAD_CAT_ID": 34693, "ELEMENT_SET_NO": 999, "REV_AT_EPOCH": 88817, "BSTAR": 0.0075874268, "MEAN_MOTION_DOT": 0.00199076, "MEAN_MOTION_DDOT": 0}, "tle": {"line1": "1 34693U 97051KQ  25340.36112368  .00199076  00000+0  75874-2 0  9995", "line2": "2 34693  86.3060 306.9875 0015504  62.5599  89.6488 15.25753758888172"}}, "geometry": {"type": "Point", "coordinates": [-166.2093050293767, -85.99212379500145]}}, {"type": "Feature", "properties": {"norad_id": 34696, "name": "IRIDIUM 33 DEB", "group": "iridium-33-debris", "lat": 33.66500028514206, "lon": -152.46311925993106, "alt_km": 636.0291885950146, "timestamp": "2025-12-07T05:38:10.288981+00:00", "meta": {"OBJECT_NAME": "IRIDIUM 33 DEB", "OBJECT_ID": "1997-051KT", "EPOCH": "2025-12-06T02:52:04.787040", "MEAN_MOTION": 14.64542505, "ECCENTRICITY": 0.00743833, "INCLINATION": 86.1861, "RA_OF_ASC_NODE": 30.6015, "ARG_OF_PERICENTER": 190.2321, "MEAN_ANOMALY": 199.6062, "EPHEMERIS_TYPE": 0, "CLASSIFICATION_TYPE": "U", "NORAD_CAT_ID": 34696, "ELEMENT_SET_NO": 999, "REV_AT_EPOCH": 86576, "BSTAR": 0.0082420437, "MEAN_MOTION_DOT": 0.00045777, "MEAN_MOTION_DDOT": 0}, "tle": {"line1": "1 34696U 97051KT  25340.11949985  .00045777  00000+0  82420-2 0  9997", "line2": "2 34696  86.1861  30.6015 0074383 190.2321 199.6062 14.64542505865769"}}, "geometry": {"type": "Point", "coordinates": [-152.46311925993106, 33.66500028514206]}}, {"type": "Feature", "properties": {"norad_id": 34765, "name": "IRIDIUM 33 DEB", "group": "iridium-33-debris", "lat": 19.878794798718737, "lon": -146.20297013371732, "alt_km": 753.8265271370337, "timestamp": "2025-12-07T05:38:10.288990+00:00", "meta": {"OBJECT_NAME": "IRIDIUM 33 DEB", "OBJECT_ID": "1997-051LJ", "EPOCH": "2025-12-06T14:30:03.375072", "MEAN_MOTION": 14.40440942, "ECCENTRICITY": 0.00148947, "INCLINATION": 86.3396, "RA_OF_ASC_NODE": 35.3938, "ARG_OF_PERICENTER": 233.6744, "MEAN_ANOMALY": 258.3156, "EPHEMERIS_TYPE": 0, "CLASSIFICATION_TYPE": "U", "NORAD_CAT_ID": 34765, "ELEMENT_SET_NO": 999, "REV_AT_EPOCH": 87525, "BSTAR": 0.00076473215, "MEAN_MOTION_DOT": 2.451e-05, "MEAN_MOTION_DDOT": 0}, "tle": {"line1": "1 34765U 97051LJ  25340.60420573  .00002451  00000+0  76473-3 0  9999", "line2": "2 34765  86.3396  35.3938 0014894 233.6744 258.3156 14.40440942875257"}}, "geometry": {"type": "Point", "coordinates": [-146.20297013371732, 19.878794798718737]}}]}